# Made by eph2tle, compiled Jan  5 2024 10:09:35
# Run at Mon Jan  8 09:18:38 2024
#
# No updates
#
#    The following TLEs (Two-Line Elements) were generated by fitting
# a numerically-integrated ephemeris,  based on the orbit given below,
# to the SDP4/SGP4 models.  Each TLE is good for the interval between
# its epoch and the epoch of the subsequent TLE (usually one day).
# The maximum deviation between the numerically integrated ephemerides
# and the TLE-based ephemeris, in kilometers,  is given for each TLE
# as the "worst residual".
#
#    This fitting is done using the 'eph2tle' code packaged with Find_Orb.
# The code has details on how the TLEs were computed :
#
#    https://github.com/Bill-Gray/find_orb/eph2tle.cpp
#
#    Be warned:  the error given is that between the numerically
# integrated ephems and the TLE model.  There will usually be at
# least some additional difference between the ephems and the actual
# motion of the satellite,  especially if the ephemerides are based
# on a short arc.  If the following orbital elements say something
# like "[based on] 10 observations 2015 Jan. 1-13",  and the TLEs
# are for 2015 May,  the extrapolation may be tenuous at best.  If
# your application requires a specific level of accuracy,  you may
# want to contact me;  I can give you some idea as to the fit of the
# underlying data (and possibly TLEs based on newer data).
#
#   You can usually find the underlying observational data,  and the
# fitted orbit,  residuals,  ephemerides,  and sometimes some comments
# about the object,  among the pages listed at
#
#    https://www.projectpluto.com/pluto/mpecs/pseudo.htm
#
#    Also,  if you use a TLE outside the "correct" time range (between
# its MJD and that of the next TLE),  all bets are off.  I've carefully
# computed and minimized the worst error over the "correct" time frame,
# but the ephemeris may (or may not) diverge wildly outside of it.
#
# Ephem range: 60317.500000 60331.500000 1.000000
# Created from Horizons data by 'jpl2mpc', ver Jan  8 2024, at Mon Jan  8 14:18:34 2024 UTC
#   Note : I fitted JPL data to the first (Jan 8.5-9.5) TLE.  After that,
# it's TLEs from observations.  Those will need to be updated;  the object
# is still "wiggling around" a bit as fuel leaks.  A fit with A1, A2, A3
# (basically assuming that the object is pushed by a steady amount in a
# steady direction as the fuel leaks) fits fairly well.  Based on Astrobotic's
# press releases,  I'm guesstimating that the fuel will run out sometime
# around Jan 14 00:00 UTC.  These elements assume the non-gravs cut out at
# that point.
#
#  SPACECRAFT TRAJECTORY: Pre-launch reference trajectory   (for the JPL TLE)
#
# Elements for after 2024 Jan 9.5 :
#
# Orbital elements:  Peregrine Lander
#    Perigee 2024 Jan 8.27280 +/- 0.0036 TT =  6:32:49 (JD 2460317.77280)
# A1: (-117.57 +/- 2.86)e-7   A2: (-46.61 +/- 8.03)e-8
# A3: (-285.54 +/- 3.32)e-8 AU/day^2 [1/r^2]
# Epoch 2024 Jan 13.0 TT = JDT 2460322.5                           Find_Orb
# M 163.23576690 +/- 0.43             (J2000 ecliptic)
# n  34.53115289 +/- 0.0724           Peri.  205.47826 +/- 0.033
# a201587.123 +/- 282                 Node    72.82290 +/- 0.017
# e   0.9732431 +/- 8.36e-5           Incl.   11.17695 +/- 0.007
# P  10.4252d                H 30.34  G  0.15   U 11.0
# q 5393.83862 +/- 24.3    Q 397780.407 +/- 540
# 51 of 118 observations 2024 Jan. 9-13; mean residual 3".976
#
# Elements for after 2024 Jan 12.5 :
#
# Orbital elements:  Peregrine Lander
#    Perigee 2024 Jan 18.85475 +/- 0.00756 TT = 20:30:50 (JD 2460328.35475)
# A1: (-76.96 +/- 8.24)e-7   A2: (-0.26 +/- 2.05)e-7
# A3: (-121.21 +/- 8.47)e-8 AU/day^2 [1/r^2]
# Epoch 2024 Jan 15.0 TT = JDT 2460324.5                           Find_Orb
# M 228.39602810 +/- 0.28             (J2000 equator)
# n  34.14069596 +/- 0.0104           Peri.  259.48003 +/- 0.014
# a203121.202 +/- 41.3                Node    21.05403 +/- 0.029
# e   0.9737257 +/- 4.45e-5           Incl.   28.53741 +/- 0.0021
# P  10.5444d                H 30.47  G  0.15   U  9.7
# q 5336.86682 +/- 8.51    Q 400905.538 +/- 86.7
# 35 of 158 observations 2024 Jan. 13-15; mean residual 1".141
# IMPACT at  18 Jan 2024 20:22:34.12 lat -14.20961 lon E165.35291
#
# 1 NoradU COSPAR   Epoch.epoch     dn/dt/2  d2n/dt2/6 BSTAR    T El# C
# 2 NoradU Inclina RAAscNode Eccent  ArgPeri MeanAno  MeanMotion Rev# C

# Worst residual: 332.06 km
# MJD 60317.500000 (2024 Jan  8 12:00)
Peregrine = 2024-000A = NORAD 99999
1 58751U 24006A   24008.99919926  .00000000  00000-0  00000-0 0 21990
2 58751 029.6210 026.0142 9500069 256.5056 021.7231 00.08862738    09

# Worst residual: 159.87 km
# MJD 60318.500000 (2024 Jan  9 12:00)
Peregrine Lander
1 58751U 24006A   24009.99919926  .00000000  00000-0  00000-0 0 22048
2 58751 029.0127 023.8361 9522411 258.0748 052.6813 00.08791838    09

# Worst residual: 129.46 km
# MJD 60319.500000 (2024 Jan 10 12:00)
Peregrine Lander
1 58751U 24006A   24010.99919926  .00000000  00000-0  00000-0 0 22040
2 58751 028.7825 022.7531 9538113 258.4777 089.5383 00.09241735    07

# Worst residual: 107.33 km
# MJD 60320.500000 (2024 Jan 11 12:00)
Peregrine Lander
1 58751U 24006A   24011.99919926  .00000000  00000-0  00000-0 0 22041
2 58751 028.5690 021.3378 9563509 259.2659 127.4569 00.09475460    06

# Worst residual: 67.35 km
# MJD 60321.500000 (2024 Jan 12 12:00)
Peregrine Lander
1 58751U 24006A   24012.99919926  .00000000  00000-0  00000-0 0 22064
2 58751 028.4151 019.8440 9596584 260.6331 159.2004 00.09493263    09

# Worst residual: 47.07 km
# MJD 60322.500000 (2024 Jan 13 12:00)
Peregrine Lander
1 58751U 24006A   24013.99919926  .00000000  00000-0  00000-0 0 22065
2 58751 028.3971 019.5803 9625581 260.7431 195.6634 00.09521364    07

# Worst residual: 38.06 km
# MJD 60323.500000 (2024 Jan 14 12:00)
Peregrine Lander
1 58751U 24006A   24014.99919926  .00000000  00000-0  00000-0 0 22066
2 58751 028.3883 019.3780 9648935 260.9204 231.5171 00.09507277    02

# Worst residual: 18.39 km
# MJD 60324.500000 (2024 Jan 15 12:00)
Peregrine Lander
1 58751U 24006A   24015.99919926  .00000000  00000-0  00000-0 0 22067
2 58751 028.3833 019.2077 9652607 261.0863 265.9582 00.09495482    00

# Worst residual: 33.48 km
# MJD 60325.500000 (2024 Jan 16 12:00)
Peregrine Lander
1 58751U 24006A   24016.99919926  .00000000  00000-0  00000-0 0 22068
2 58751 028.3820 018.9836 9638993 261.1781 299.4808 00.09522459    05

# Worst residual: 30.85 km
# MJD 60326.500000 (2024 Jan 17 12:00)
Peregrine Lander
1 58751U 24006A   24017.99919926  .00000000  00000-0  00000-0 0 22069
2 58751 028.3879 018.7250 9625657 261.1583 333.5996 00.09494085    01

# Worst residual: 68.89 km
# MJD 60327.500000 (2024 Jan 18 12:00)
Peregrine Lander
1 58751U 24006A   24018.99919926  .00000000  00000-0  00000-0 0 22060
2 58751 028.4083 018.4513 9630090 261.2343 007.4911 00.08988444    00

# Worst residual: 25.86 km
# MJD 60328.500000 (2024 Jan 19 12:00)
Peregrine Lander
1 58751U 24006A   24019.99919926  .00000000  00000-0  00000-0 0 22061
2 58751 028.4098 018.4549 9638201 260.8886 040.6550 00.09239803    01

# Worst residual: 49.76 km
# MJD 60329.500000 (2024 Jan 20 12:00)
Peregrine Lander
1 58751U 24006A   24020.99919926  .00000000  00000-0  00000-0 0 22063
2 58751 028.4768 018.8008 9653917 260.3314 074.1920 00.09300612    01

# Worst residual: 181.25 km
# MJD 60330.500000 (2024 Jan 21 12:00)
Peregrine Lander
1 58751U 24006A   24021.99919926  .00000000  00000-0  00000-0 0 22064
2 58751 028.7668 020.7421 9712485 258.0341 108.2367 00.09377725    07
Avg worst resid: 56.10 km
Worst residual in entire run: 181.25 km on MJD 60330.5
       1     3     10    30    100   300   1K    3K    10K   km
     0     0     0     2     7     1     0     0     0     0
